*******************************************************************************
 Revised: Jun 17, 2016             Miranda / (Uranus)                       705

 SATELLITE PHYSICAL PROPERTIES:
  Radius (km)           = 240x234.2x232.9   Density (g cm^-3)   =  1.20 +- 0.14
  Mass (10^20 kg )      =  0.659 +- 0.075   Geometric Albedo    =  0.27 
                                            V(1,0)              = +3.6 

 SATELLITE ORBITAL DATA:
  Semi-major axis, a (km) = 129.8 (10^3)    Orbital period      =  1.413 d
  Eccentricity, e         =   0.0027        Rotational period   = Synchronous
  Inclination, i  (deg)   =   4.22
*******************************************************************************
 
 
*******************************************************************************
Ephemeris / WWW_USER Sat Nov 11 07:04:01 2017 Pasadena, USA      / Horizons    
*******************************************************************************
Target body name: Miranda (705)                   {source: ura111}
Center body name: Solar System Barycenter (0)     {source: DE431mx}
Center-site name: BODY CENTER
*******************************************************************************
Start time      : A.D. 2017-Jul-10 00:00:00.0000 TDB
Stop  time      : A.D. 2020-Aug-13 00:00:00.0000 TDB
Step-size       : 1440 minutes
*******************************************************************************
Center geodetic : 0.00000000,0.00000000,0.0000000 {E-lon(deg),Lat(deg),Alt(km)}
Center cylindric: 0.00000000,0.00000000,0.0000000 {E-lon(deg),Dxy(km),Dz(km)}
Center radii    : (undefined)                                                  
Output units    : KM-S                                                         
Output type     : GEOMETRIC cartesian states
Output format   : 3 (position, velocity, LT, range, range-rate)
Reference frame : ICRF/J2000.0                                                 
Coordinate systm: Ecliptic and Mean Equinox of Reference Epoch                 
*******************************************************************************
            JDTDB,            Calendar Date (TDB),                      X,                      Y,                      Z,                     VX,                     VY,                     VZ,                     LT,                     RG,                     RR,
**************************************************************************************************************************************************************************************************************************************************************************
$$SOE
2458862.500000000, A.D. 2020-Jan-14 00:00:00.0000,  2.422199757117443E+09,  1.709282581263625E+09, -2.513918335788798E+07, -9.401435649177902E+00,  6.776439959934335E+00,  3.672493472543037E+00,  9.889109751414500E+03,  2.964680519808322E+09, -3.805343533952103E+00,
2458863.500000000, A.D. 2020-Jan-15 00:00:00.0000,  2.422050477340866E+09,  1.709718137740216E+09, -2.506522402574611E+07, -6.175466570972777E+00,  4.412818374975075E+00, -6.182190632112349E+00,  9.889538587629420E+03,  2.964809081671272E+09, -2.447934402752185E+00,
2458864.500000000, A.D. 2020-Jan-16 00:00:00.0000,  2.421595242856508E+09,  1.710220260718390E+09, -2.489251709168398E+07,  2.597504063837640E+00,  4.156949125013586E+00, -2.245269912526091E-01,  9.889259343333264E+03,  2.964725366337345E+09,  4.521495075003008E+00,
2458865.500000000, A.D. 2020-Jan-17 00:00:00.0000,  2.421116047671387E+09,  1.710665374920416E+09, -2.504190254750919E+07, -5.242886163503941E+00,  6.651861122702433E+00,  6.483144033957782E+00,  9.888814656452047E+03,  2.964592052564184E+09, -4.981722814138280E-01,
2458866.500000000, A.D. 2020-Jan-18 00:00:00.0000,  2.420955369751918E+09,  1.711073737359272E+09, -2.512032598392630E+07, -9.895574845693625E+00,  5.588736765625674E+00, -3.027643673014373E+00,  9.889165266838520E+03,  2.964697162913745E+09, -4.829481114585927E+00,
2458867.500000000, A.D. 2020-Jan-19 00:00:00.0000,  2.420649947513977E+09,  1.711558477445541E+09, -2.491390640121222E+07,  4.088156734662225E-01,  3.653873283981912E+00, -4.694473086131753E+00,  9.889260915698087E+03,  2.964725837720460E+09,  2.482649492460361E+00,
2458868.500000000, A.D. 2020-Jan-20 00:00:00.0000,  2.420102601782061E+09,  1.712039402014878E+09, -2.492897745350718E+07, -3.819341637116378E-01,  5.733688116652797E+00,  5.675055864828664E+00,  9.888697038816612E+03,  2.964556791684153E+09,  2.951708260779594E+00,
2458869.500000000, A.D. 2020-Jan-21 00:00:00.0000,  2.419827101853884E+09,  1.712445782975714E+09, -2.511210614439559E+07, -1.028364543517071E+01,  6.574214387235948E+00,  1.882150833945933E+00,  9.888734962298426E+03,  2.964568160857983E+09, -4.612450197011498E+00,
2458870.500000000, A.D. 2020-Jan-22 00:00:00.0000,  2.419649949219862E+09,  1.712895222388551E+09, -2.498469507457209E+07, -4.248544378631033E+00,  4.042869514571579E+00, -6.491843284184394E+00,  9.889115135199141E+03,  2.964682133826353E+09, -1.076938924550042E+00,
2458871.500000000, A.D. 2020-Jan-23 00:00:00.0000,  2.419148697585196E+09,  1.713396284060676E+09, -2.485359465705049E+07,  2.443245261573316E+00,  4.539831410136186E+00,  1.720594475372501E+00,  9.888712778467758E+03,  2.964561510312859E+09,  4.603156607030683E+00,
2458872.500000000, A.D. 2020-Jan-24 00:00:00.0000,  2.418719837327438E+09,  1.713826928947538E+09, -2.503458278317213E+07, -7.113090021753564E+00,  6.808360788756534E+00,  5.770526644874019E+00,  9.888380946112813E+03,  2.964462029475525E+09, -1.916260876024236E+00,
2458873.500000000, A.D. 2020-Jan-25 00:00:00.0000,  2.418576909873000E+09,  1.714242869229482E+09, -2.505462338322306E+07, -8.768444674804307E+00,  5.108562664405468E+00, -4.598742897509945E+00,  9.888794729676883E+03,  2.964586078667278E+09, -4.160655352170830E+00,
2458874.500000000, A.D. 2020-Jan-26 00:00:00.0000,  2.418210006593801E+09,  1.714736938427387E+09, -2.484751743991816E+07,  1.657157800958809E+00,  3.738664941826165E+00, -3.152875968551866E+00,  9.888743638895436E+03,  2.964570762036327E+09,  3.540655439218098E+00,
2458875.500000000, A.D. 2020-Jan-27 00:00:00.0000,  2.417675601283076E+09,  1.715204252556501E+09, -2.492115180143869E+07, -2.183896864742677E+00,  6.156581748845952E+00,  6.437863710859455E+00,  9.888193529791779E+03,  2.964405843475974E+09,  1.726957212581656E+00,
2458876.500000000, A.D. 2020-Jan-28 00:00:00.0000,  2.417453201619376E+09,  1.715607334552773E+09, -2.507394611724138E+07, -1.060161630233950E+01,  6.252172307573340E+00, -6.610616318136486E-02,  9.888370868147505E+03,  2.964459008177534E+09, -5.026543130194039E+00,
2458877.500000000, A.D. 2020-Jan-29 00:00:00.0000,  2.417233363050701E+09,  1.716071013417685E+09, -2.490384242497933E+07, -2.297781382254665E+00,  3.777819395020004E+00, -6.218596011929613E+00,  9.888663331250777E+03,  2.964546686410138E+09,  3.655194501376186E-01,
2458878.500000000, A.D. 2020-Jan-30 00:00:00.0000,  2.416700096704636E+09,  1.716566689558737E+09, -2.482548500919509E+07,  1.715589391434179E+00,  4.987349086720180E+00,  3.520555170951330E+00,  9.888168131602970E+03,  2.964398229290522E+09,  4.257114562185293E+00,
2458879.500000000, A.D. 2020-Jan-31 00:00:00.0000,  2.416329234498213E+09,  1.716984751667749E+09, -2.502137821783841E+07, -8.703174150480429E+00,  6.824959536171102E+00,  4.549020993624811E+00,  9.887972797250181E+03,  2.964339669524767E+09, -3.179529508739876E+00,
2458880.500000000, A.D. 2020-Feb-01 00:00:00.0000,  2.416186176647515E+09,  1.717411568629303E+09, -2.498070418987024E+07, -7.213036535935529E+00,  4.637631862345152E+00, -5.752838898434805E+00,  9.888407415317519E+03,  2.964469964743465E+09, -3.143768262930667E+00,
2458881.500000000, A.D. 2020-Feb-02 00:00:00.0000,  2.415759838095197E+09,  1.717911276676326E+09, -2.479090793953073E+07,  2.401210181485207E+00,  3.957517481492112E+00, -1.326209924818272E+00,  9.888208908404229E+03,  2.964410453868001E+09,  4.261315756739464E+00,
2458882.500000000, A.D. 2020-Feb-03 00:00:00.0000,  2.415255227158103E+09,  1.718363587195104E+09, -2.491609910570526E+07, -4.148993371016678E+00,  6.499482978911960E+00,  6.632821426103757E+00,  9.887715316080577E+03,  2.964262478612043E+09,  3.313920176937346E-01,
2458883.500000000, A.D. 2020-Feb-04 00:00:00.0000,  2.415074994047412E+09,  1.718767766423990E+09, -2.502442935201705E+07, -1.032608730379233E+01,  5.837219804976568E+00, -2.002652494875308E+00,  9.888010159907766E+03,  2.964350870567722E+09, -5.011328078276430E+00,
2458884.500000000, A.D. 2020-Feb-05 00:00:00.0000,  2.414801312576299E+09,  1.719244719408737E+09, -2.482637602651584E+07, -5.030167149481430E-01,  3.642232554539410E+00, -5.386792569598171E+00,  9.888183475031492E+03,  2.964402829134673E+09,  1.747717331037603E+00,
2458885.500000000, A.D. 2020-Feb-06 00:00:00.0000,  2.414252685608657E+09,  1.719731149845003E+09, -2.480712653735507E+07,  4.789301187336452E-01,  5.459791369628514E+00,  5.017243096146465E+00,  9.887633512641984E+03,  2.964237954558114E+09,  3.515631467776473E+00,
2458886.500000000, A.D. 2020-Feb-07 00:00:00.0000,  2.413942095643166E+09,  1.720139645203147E+09, -2.499984157800555E+07, -9.870453535762120E+00,  6.698471490674470E+00,  2.925487227789096E+00,  9.887585789319632E+03,  2.964223647466002E+09, -4.175640946494775E+00,
2458887.500000000, A.D. 2020-Feb-08 00:00:00.0000,  2.413780811735326E+09,  1.720579654381916E+09, -2.490161232704675E+07, -5.376189896623710E+00,  4.218810964311057E+00, -6.387051875026893E+00,  9.887996747255580E+03,  2.964346849555755E+09, -1.875318946892847E+00,
2458888.500000000, A.D. 2020-Feb-09 00:00:00.0000,  2.413302245279814E+09,  1.721080800996555E+09, -2.474537843638754E+07,  2.578543414141908E+00,  4.291313352260840E+00,  6.281305976547515E-01,  9.887663070228562E+03,  2.964246815699647E+09,  4.585636469674903E+00,
